{
  "type": "FeatureCollection",
  "features": [
    {
      "type": "Feature",
      "properties": {
        "District_ID": "D01",
        "District": "Dhading"
      },
      "geometry": {
        "type": "Polygon",
        "coordinates": [
          [
            [
              84.62,
              27.78
            ],
            [
              84.95,
              27.75
            ],
            [
              85.08,
              27.85
            ],
            [
              85.05,
              28.05
            ],
            [
              84.85,
              28.1
            ],
            [
              84.65,
              28.02
            ],
            [
              84.58,
              27.9
            ],
            [
              84.62,
              27.78
            ]
          ]
        ]
      }
    },
    {
      "type": "Feature",
      "properties": {
        "District_ID": "D02",
        "District": "Nuwakot"
      },
      "geometry": {
        "type": "Polygon",
        "coordinates": [
          [
            [
              84.95,
              27.82
            ],
            [
              85.2,
              27.8
            ],
            [
              85.38,
              27.9
            ],
            [
              85.35,
              28.08
            ],
            [
              85.15,
              28.12
            ],
            [
              84.98,
              28.02
            ],
            [
              84.92,
              27.92
            ],
            [
              84.95,
              27.82
            ]
          ]
        ]
      }
    },
    {
      "type": "Feature",
      "properties": {
        "District_ID": "D03",
        "District": "Rasuwa"
      },
      "geometry": {
        "type": "Polygon",
        "coordinates": [
          [
            [
              85.05,
              27.98
            ],
            [
              85.3,
              27.95
            ],
            [
              85.55,
              28.05
            ],
            [
              85.65,
              28.25
            ],
            [
              85.5,
              28.42
            ],
            [
              85.25,
              28.38
            ],
            [
              85.08,
              28.2
            ],
            [
              85.05,
              27.98
            ]
          ]
        ]
      }
    },
    {
      "type": "Feature",
      "properties": {
        "District_ID": "D04",
        "District": "Tanahu"
      },
      "geometry": {
        "type": "Polygon",
        "coordinates": [
          [
            [
              84.02,
              27.82
            ],
            [
              84.28,
              27.8
            ],
            [
              84.45,
              27.9
            ],
            [
              84.42,
              28.08
            ],
            [
              84.2,
              28.12
            ],
            [
              84.02,
              28.0
            ],
            [
              83.98,
              27.9
            ],
            [
              84.02,
              27.82
            ]
          ]
        ]
      }
    },
    {
      "type": "Feature",
      "properties": {
        "District_ID": "D05",
        "District": "Gorkha"
      },
      "geometry": {
        "type": "Polygon",
        "coordinates": [
          [
            [
              84.32,
              27.92
            ],
            [
              84.62,
              27.88
            ],
            [
              84.85,
              27.98
            ],
            [
              84.9,
              28.25
            ],
            [
              84.75,
              28.55
            ],
            [
              84.5,
              28.6
            ],
            [
              84.3,
              28.35
            ],
            [
              84.25,
              28.1
            ],
            [
              84.32,
              27.92
            ]
          ]
        ]
      }
    },
    {
      "type": "Feature",
      "properties": {
        "District_ID": "D06",
        "District": "Chitwan"
      },
      "geometry": {
        "type": "Polygon",
        "coordinates": [
          [
            [
              84.15,
              27.45
            ],
            [
              84.45,
              27.42
            ],
            [
              84.75,
              27.5
            ],
            [
              84.8,
              27.68
            ],
            [
              84.6,
              27.82
            ],
            [
              84.3,
              27.85
            ],
            [
              84.12,
              27.68
            ],
            [
              84.15,
              27.45
            ]
          ]
        ]
      }
    }
  ]
}